{
  "version": 0.6,
  "generator": "Overpass API 0.7.61.5 4133829e",
  "osm3s": {
    "timestamp_osm_base": "2023-09-07T22:31:38Z",
    "timestamp_areas_base": "2023-09-07T17:18:13Z",
    "copyright": "The data included in this document is from www.openstreetmap.org. The data is made available under ODbL."
  },
  "elements": [

{
  "type": "area",
  "id": 3600062611,
  "tags": {
    "ISO3166-2": "DE-BW",
    "TMC:cid_58:tabcd_1:Class": "Area",
    "TMC:cid_58:tabcd_1:LCLversion": "12.0",
    "TMC:cid_58:tabcd_1:LocationCode": "263",
    "admin_level": "4",
    "alt_name:cs": "Země Bádensko-Württembersko",
    "border_type": "state",
    "boundary": "administrative",
    "de:amtlicher_gemeindeschluessel": "08",
    "de:regionalschluessel": "08",
    "name": "Baden-Württemberg",
    "name:am": "ባደን-ቩርተምቡርግ",
    "name:an": "Baden-Wurtemberg",
    "name:ar": "بادن فورتمبرغ",
    "name:ay": "Baden-Württemberg suyu",
    "name:az": "Baden-Vürtemberq",
    "name:ba": "Баден-Вюртемберг",
    "name:be": "Бадэн-Вюртэмберг",
    "name:bg": "Баден-Вюртемберг",
    "name:bn": "বাডেন-ভুর্টেমবের্গ",
    "name:ca": "Baden-Württemberg",
    "name:ce": "Баден-Вюртемберг",
    "name:cs": "Bádensko-Württembersko",
    "name:cv": "Баден-Вюртемберг",
    "name:el": "Βάδη-Βυρτεμβέργη",
    "name:en": "Baden-Württemberg",
    "name:eo": "Baden-Virtembergo",
    "name:es": "Baden-Wurtemberg",
    "name:fa": "بادن-وورتمبرگ",
    "name:fr": "Bade-Wurtemberg",
    "name:fy": "Baden-Wuertemberch",
    "name:gn": "Baden-Wurtemberg",
    "name:gsw": "Bade-Wirddeberg",
    "name:he": "באדן-וירטמברג",
    "name:hsb": "Badensko-Württembergska",
    "name:hu": "Baden-Württemberg",
    "name:hy": "Բադեն-Վյուրթեմբերգ",
    "name:ia": "Baden-Wuertemberg",
    "name:io": "Badenia-Wurtemberg",
    "name:ja": "バーデン＝ヴュルテンベルク州",
    "name:ka": "ბადენ-ვიურტემბერგი",
    "name:kk": "Баден-Вюртемберг",
    "name:ko": "바덴뷔르템베르크 주",
    "name:la": "Badenia-Virtembergia",
    "name:lt": "Badenas-Viurtembergas",
    "name:lv": "Bādene-Virtemberga",
    "name:mk": "Баден-Виртемберг",
    "name:mn": "Баден-Вюртемберг",
    "name:mr": "बाडेन-व्युर्टेंबर्ग",
    "name:os": "Баден-Вюртемберг",
    "name:pa": "ਬਾਡਨ-ਵਰਟਮਬਰਕ",
    "name:pfl": "Bade-Wirddeberg",
    "name:pl": "Badenia-Wirtembergia",
    "name:prefix": "Bundesland",
    "name:ps": "باډن ورټمبرگ",
    "name:pt": "Baden-Vurtemberga",
    "name:ru": "Баден-Вюртемберг",
    "name:sk": "Bádensko-Wurttembersko",
    "name:sq": "Baden-Vyrtemberg",
    "name:sr": "Баден-Виртемберг",
    "name:ta": "பாடன்-வுயர்ட்டம்பெர்கு",
    "name:th": "รัฐบาเดิน-เวือร์ทเทิมแบร์ค",
    "name:uk": "Баден-Вюртемберг",
    "name:ur": "بادن-وورتمبرگ",
    "name:uz": "Baden-Vyurtemberg",
    "name:vo": "Badän-Vürtän",
    "name:yi": "באדן-ווירטמבורג",
    "name:zh": "巴登-符腾堡",
    "ref": "BW",
    "ref:nuts": "DE1",
    "ref:nuts:1": "DE1",
    "source": "http://wiki.openstreetmap.org/wiki/Import/Catalogue/Kreisgrenzen_Deutschland_2005",
    "type": "boundary",
    "wikidata": "Q985",
    "wikipedia": "de:Baden-Württemberg"
  }
}

  ]
}
