{
  "version": 0.6,
  "generator": "Overpass API 0.7.61.5 4133829e",
  "osm3s": {
    "timestamp_osm_base": "2023-09-07T22:26:30Z",
    "timestamp_areas_base": "2023-09-07T17:18:13Z",
    "copyright": "The data included in this document is from www.openstreetmap.org. The data is made available under ODbL."
  },
  "elements": [

{
  "type": "area",
  "id": 3600062422,
  "tags": {
    "ISO3166-2": "DE-BE",
    "TMC:cid_58:tabcd_1:Class": "Area",
    "TMC:cid_58:tabcd_1:LCLversion": "12.0",
    "TMC:cid_58:tabcd_1:LocationCode": "266",
    "admin_level": "4",
    "alt_name:vi": "Béc-lin",
    "boundary": "administrative",
    "contact:facebook": "http://www.facebook.com/Berlin",
    "de:amtlicher_gemeindeschluessel": "11000000",
    "de:place": "city",
    "de:regionalschluessel": "110000000000",
    "geographical_region": "Barnim;Berliner Urstromtal;Teltow;Nauener Platte",
    "license_plate_code": "B",
    "name": "Berlin",
    "name:af": "Berlyn",
    "name:als": "Berlin",
    "name:am": "በርሊን",
    "name:an": "Berlín",
    "name:ang": "Berlin",
    "name:ar": "برلين",
    "name:arc": "ܒܪܠܝܢ",
    "name:ast": "Berlín",
    "name:az": "Berlin",
    "name:ba": "Берлин",
    "name:bar": "Berlin",
    "name:bat-smg": "Berlīns",
    "name:be": "Берлін",
    "name:be-tarask": "Бэрлін",
    "name:bg": "Берлин",
    "name:bi": "Berlin",
    "name:bn": "বার্লিন",
    "name:bo": "པེ་ལིང་",
    "name:br": "Berlin",
    "name:bs": "Berlin",
    "name:ca": "Berlín",
    "name:cbk-zam": "Berlín",
    "name:crh": "Berlin",
    "name:cs": "Berlín",
    "name:csb": "Berlëno",
    "name:cu": "Берлинъ",
    "name:cv": "Берлин",
    "name:cy": "Berlin",
    "name:da": "Berlin",
    "name:de": "Berlin",
    "name:diq": "Berlin",
    "name:dsb": "Barliń",
    "name:el": "Βερολίνο",
    "name:en": "Berlin",
    "name:eo": "Berlino",
    "name:es": "Berlín",
    "name:et": "Berliin",
    "name:eu": "Berlin",
    "name:fa": "برلین",
    "name:fi": "Berliini",
    "name:fo": "Berlin",
    "name:fr": "Berlin",
    "name:frp": "Bèrlin",
    "name:fur": "Berlin",
    "name:fy": "Berlyn",
    "name:ga": "Beirlín",
    "name:gd": "Berlin",
    "name:gl": "Berlín",
    "name:gn": "Berlin",
    "name:gv": "Berleen",
    "name:haw": "Pelelina",
    "name:he": "ברלין",
    "name:hi": "बर्लिन",
    "name:hr": "Berlin",
    "name:hsb": "Berlin",
    "name:ht": "Bèlen",
    "name:hu": "Berlin",
    "name:hy": "Բեռլին",
    "name:ia": "Berlin",
    "name:id": "Berlin",
    "name:ie": "Berlin",
    "name:ilo": "Berlin",
    "name:io": "Berlin",
    "name:is": "Berlín",
    "name:it": "Berlino",
    "name:ja": "ベルリン",
    "name:jbo": "berlin",
    "name:jv": "Berlin",
    "name:ka": "ბერლინი",
    "name:kab": "Berlin",
    "name:kk": "Берлин",
    "name:ko": "베를린",
    "name:ksh": "Bälliin",
    "name:ku": "Berlîn",
    "name:kv": "Берлин",
    "name:kw": "Berlin",
    "name:la": "Berolinum",
    "name:lb": "Berlin",
    "name:lg": "Berlin",
    "name:li": "Berlien",
    "name:lij": "Berlin",
    "name:lmo": "Berlin",
    "name:ln": "Berlin",
    "name:lt": "Berlynas",
    "name:lv": "Berlīne",
    "name:lzh": "柏林",
    "name:mg": "Berlin",
    "name:mk": "Берлин",
    "name:ml": "ബെര്‍ലിന്",
    "name:mn": "Берлин",
    "name:mr": "बर्लिन",
    "name:ms": "Berlin",
    "name:mt": "Berlin",
    "name:myv": "Берлин ош",
    "name:na": "Berlin",
    "name:nah": "Berlin",
    "name:nan": "Berlin",
    "name:nap": "Berlino",
    "name:nds": "Berlin",
    "name:nl": "Berlijn",
    "name:nn": "Berlin",
    "name:no": "Berlin",
    "name:nov": "Berlin",
    "name:nrm": "Bèrlîn",
    "name:oc": "Berlin",
    "name:os": "Берлин",
    "name:pam": "Berlin",
    "name:pdc": "Berlin",
    "name:pl": "Berlin",
    "name:pms": "Berlin",
    "name:prefix:city": "Kreisfreie Stadt",
    "name:prefix:state": "Land",
    "name:pt": "Berlim",
    "name:qu": "Berlin",
    "name:rm": "Berlin",
    "name:rmy": "Berlin",
    "name:ro": "Berlin",
    "name:roa-rup": "Berlin",
    "name:roa-tara": "Berline",
    "name:ru": "Берлин",
    "name:sah": "Берлин",
    "name:sc": "Berlinu",
    "name:scn": "Birlinu",
    "name:sco": "Berlin",
    "name:se": "Berlin",
    "name:sh": "Berlin",
    "name:short": "BE",
    "name:sk": "Berlín",
    "name:sl": "Berlin",
    "name:so": "Berlin",
    "name:sq": "Berlini",
    "name:sr": "Берлин",
    "name:stq": "Berlin",
    "name:su": "Berliini",
    "name:sv": "Berlin",
    "name:sw": "Berlin",
    "name:szl": "Berlin",
    "name:ta": "பெர்லின்",
    "name:te": "బెర్లిన్",
    "name:tet": "Berlín",
    "name:tg": "Берлин",
    "name:th": "เบอร์ลิน",
    "name:tl": "Berlin",
    "name:tpi": "Berlin",
    "name:tr": "Berlin",
    "name:tt": "Берлин",
    "name:ty": "Berlin",
    "name:tzl": "Berlin",
    "name:uk": "Берлін",
    "name:ur": "برلن",
    "name:uz": "Berlin",
    "name:vec": "Berlin",
    "name:vi": "Berlin",
    "name:vls": "Berlyn",
    "name:wo": "Berlin",
    "name:yi": "בערלין",
    "name:yo": "Berlin",
    "name:yue": "柏林",
    "name:zh": "柏林",
    "name:zu": "Berlin",
    "official_name": "Berlin",
    "official_status": "Land",
    "official_status:de": "Land",
    "official_status:en": "State",
    "official_status:ru": "земля",
    "old_name:vi": "Bá Linh",
    "place": "city",
    "population": "3769962",
    "ref:nuts": "DE3;DE30;DE300",
    "ref:nuts:1": "DE3",
    "ref:nuts:2": "DE30",
    "ref:nuts:3": "DE300",
    "report_problems:website": "https://ordnungsamt.berlin.de/",
    "source:population": "https://download.statistik-berlin-brandenburg.de/fa93e3bd19a2e885/a5ecfb2fff6a/SB_A01-05-00_2020h02_BE.pdf",
    "state_code": "BE",
    "type": "boundary",
    "website": "http://www.berlin.de",
    "wikidata": "Q64",
    "wikipedia": "de:Berlin"
  }
}

  ]
}
