{
  "version": 0.6,
  "generator": "Overpass API 0.7.61.5 4133829e",
  "osm3s": {
    "timestamp_osm_base": "2023-09-08T05:29:26Z",
    "timestamp_areas_base": "2023-09-08T02:44:08Z",
    "copyright": "The data included in this document is from www.openstreetmap.org. The data is made available under ODbL."
  },
  "elements": [

{
  "type": "area",
  "id": 3600062467,
  "tags": {
    "ISO3166-2": "DE-SN",
    "TMC:cid_58:tabcd_1:Class": "Area",
    "TMC:cid_58:tabcd_1:LCLversion": "12.0",
    "TMC:cid_58:tabcd_1:LocationCode": "269",
    "admin_level": "4",
    "alt_name:eo": "Saksujo",
    "alt_name:pt": "Saxónia;Saxe",
    "boundary": "administrative",
    "de:amtlicher_gemeindeschluessel": "14",
    "de:regionalschluessel": "14",
    "name": "Sachsen",
    "name:ar": "سكسونيا",
    "name:ca": "Saxònia",
    "name:cs": "Sasko",
    "name:de": "Sachsen",
    "name:en": "Saxony",
    "name:eo": "Saksio",
    "name:es": "Sajonia",
    "name:fa": "زاکسن",
    "name:fi": "Saksi",
    "name:fr": "Saxe",
    "name:fy": "Saksen",
    "name:hr": "Saska",
    "name:hsb": "Sakska",
    "name:hu": "Szászország",
    "name:ia": "Saxonia",
    "name:io": "Saxonia",
    "name:is": "Saxland",
    "name:it": "Sassonia",
    "name:lt": "Saksonija",
    "name:mk": "Саксонија",
    "name:nl": "Saksen",
    "name:pl": "Saksonia",
    "name:prefix": "Bundesland",
    "name:pt": "Saxônia",
    "name:ro": "Saxonia",
    "name:ru": "Саксония",
    "name:sk": "Sasko",
    "name:sl": "Saška",
    "name:sr": "Слободна држава Саксонија",
    "name:sv": "Sachsen",
    "name:th": "รัฐซัคเซิน",
    "name:tzl": "Säxpäts",
    "name:uk": "Саксонія",
    "name:ur": "زاکسن",
    "name:vo": "Saxän",
    "name:zh-Hans": "萨克森",
    "name:zh-Hant": "薩克森",
    "official_name": "Freistaat Sachsen",
    "official_name:ar": "وﻻية سكسونيا الحرة",
    "official_name:de": "Freistaat Sachsen",
    "official_name:en": "Free State of Saxony",
    "ref": "SN",
    "ref:nuts:1": "DED",
    "source": "http://wiki.openstreetmap.org/wiki/Import/Catalogue/Kreisgrenzen_Deutschland_2005",
    "type": "boundary",
    "wikidata": "Q1202",
    "wikipedia": "de:Sachsen"
  }
}

  ]
}
