{
  "version": 0.6,
  "generator": "Overpass API 0.7.61.5 4133829e",
  "osm3s": {
    "timestamp_osm_base": "2023-09-08T05:26:25Z",
    "timestamp_areas_base": "2023-09-08T02:44:08Z",
    "copyright": "The data included in this document is from www.openstreetmap.org. The data is made available under ODbL."
  },
  "elements": [

{
  "type": "area",
  "id": 3600062761,
  "tags": {
    "ISO3166-2": "DE-NW",
    "TMC:cid_58:tabcd_1:Class": "Area",
    "TMC:cid_58:tabcd_1:LCLversion": "12.0",
    "TMC:cid_58:tabcd_1:LocationCode": "260",
    "admin_level": "4",
    "admin_title": "federal state",
    "admin_title:de": "Bundesland",
    "alt_name:pt": "Renânia do Norte-Vestefália",
    "boundary": "administrative",
    "de:amtlicher_gemeindeschluessel": "05",
    "de:regionalschluessel": "05",
    "name": "Nordrhein-Westfalen",
    "name:af": "Noordryn-Wesfale",
    "name:an": "Renania d'o Norte-Westfalia",
    "name:ar": "شمال الراين-وستفاليا",
    "name:az": "Şimali Reyn-Vestfaliya",
    "name:be": "Паўночны Рэйн-Вестфалія",
    "name:be-tarask": "Паўночны Райн-Вэстфалія",
    "name:bg": "Северен Рейн-Вестфалия",
    "name:br": "Nordrhein-Westfalen",
    "name:bs": "Sjeverna Rajna-Vestfalija",
    "name:ca": "Rin del Nord - Westfàlia",
    "name:co": "Nordu Renu-Westfalia",
    "name:cs": "Severní Porýní-Vestfálsko",
    "name:cv": "Çурçĕр Рейн-Вестфали",
    "name:de": "Nordrhein-Westfalen",
    "name:dsb": "Pódpołnocna Poryńska-Westfalska",
    "name:el": "Βόρεια Ρηνανία-Βεστφαλία",
    "name:en": "North Rhine-Westphalia",
    "name:eo": "Nordrejn-Vestfalio",
    "name:es": "Renania del Norte-Westfalia",
    "name:eu": "Ipar Renania-Westfalia",
    "name:fa": "نوردراین-وستفالن",
    "name:fr": "Rhénanie-du-Nord-Westphalie",
    "name:frr": "Nordrhin-Weestfåålen",
    "name:fy": "Noardryn-Westfalen",
    "name:ga": "Tuaisceart na Réine agus an Viostfáil",
    "name:gl": "Renania do Norte-Westfalia",
    "name:gv": "Yn Rhine Hwoaie-Westfalen",
    "name:he": "נורדריין-וסטפאליה",
    "name:hr": "Sjeverna Rajna - Vestfalija",
    "name:hsb": "Sewjernorynsko-Westfalska",
    "name:hu": "Észak-Rajna–Vesztfália",
    "name:ia": "Rhenania del Nord - Westfalia",
    "name:ie": "Nordrhein-Vestfalia",
    "name:ilo": "Amiananhayn Lumauwalen",
    "name:io": "Nordrheno-Vestfalia",
    "name:is": "Norðurrín-Vestfalía",
    "name:it": "Renania Settentrionale-Vestfalia",
    "name:ja": "ノルトライン＝ヴェストファーレン州",
    "name:ka": "ჩრდილოეთი რაინ-ვესტფალია",
    "name:ko": "노르트라인베스트팔렌 주",
    "name:ksh": "Noordrhing-Wääßfaale",
    "name:la": "Rhenania Septentrionalis-Vestfalia",
    "name:li": "Noordrien-Wesfale",
    "name:lij": "Renania do Nòrd-Vestfall-ia",
    "name:lmo": "Nord Reno-Westfalia",
    "name:lt": "Šiaurės Reinas-Vestfalija",
    "name:lv": "Ziemeļreina-Vestfālene",
    "name:mk": "Северна Рајна-Вестфалија",
    "name:mr": "नोर्डर्हाइन-वेस्टफालन",
    "name:nah": "Rhein Mictlāmpa-Westfalen",
    "name:nap": "Nord Reno-Westfalia",
    "name:nds": "Noordrhien-Westfalen",
    "name:nds-nl": "Noordrhain-Westfele",
    "name:nl": "Noordrijn-Westfalen",
    "name:oc": "Ren del Nòrd-Vestfàlia",
    "name:os": "Цæгат Рейн-Вестфали",
    "name:pdc": "Nordrhoi-Wessfoale",
    "name:pfl": "Nordrhoi-Weschdfaale",
    "name:pl": "Nadrenia Północna-Westfalia",
    "name:pms": "Nòrd Ren-Westfalia",
    "name:pnb": "اتلا رائین لیندا فالی",
    "name:prefix": "Bundesland",
    "name:pt": "Renânia do Norte-Vestfália",
    "name:rm": "Nord Rain-Vestfalia",
    "name:ro": "Renania de Nord-Westfalia",
    "name:ru": "Северный Рейн-Вестфалия",
    "name:sco": "North Rhine-Westphalie",
    "name:sh": "Sjeverna Rajna-Vestfalija",
    "name:sk": "Severné Porýnie - Westfálsko",
    "name:sl": "Severno Porenje-Vestfalija",
    "name:sr": "Северна Рајна-Вестфалија",
    "name:stq": "Noudrhien-Wäästfoalen",
    "name:sw": "Rhine Kaskazini-Westfalia",
    "name:szl": "Nadrynijŏ Pōłnocnŏ-Westfalijŏ",
    "name:th": "รัฐนอร์ทไรน์-เว็สท์ฟาเลิน",
    "name:tr": "Kuzey Ren-Vestfalya",
    "name:uk": "Північний Рейн — Вестфалія",
    "name:vec": "Nord Reno-Westfalia",
    "name:vo": "Nolüdarinän-Vesfalän",
    "name:zh": "北莱茵-威斯特法伦州",
    "name:zh-Hant": "北萊茵－威斯特法倫",
    "ref": "NRW",
    "ref:nuts": "DEA",
    "ref:nuts:1": "DEA",
    "source": "http://wiki.openstreetmap.org/wiki/Import/Catalogue/Kreisgrenzen_Deutschland_2005",
    "type": "boundary",
    "wikidata": "Q1198",
    "wikipedia": "de:Nordrhein-Westfalen"
  }
}

  ]
}
