{
  "version": 0.6,
  "generator": "Overpass API 0.7.61.5 4133829e",
  "osm3s": {
    "timestamp_osm_base": "2023-09-08T05:16:15Z",
    "timestamp_areas_base": "2023-09-08T02:44:08Z",
    "copyright": "The data included in this document is from www.openstreetmap.org. The data is made available under ODbL."
  },
  "elements": [

{
  "type": "area",
  "id": 3600062782,
  "tags": {
    "ISO3166-2": "DE-HH",
    "TMC:cid_58:tabcd_1:Class": "Area",
    "TMC:cid_58:tabcd_1:LCLversion": "12.0",
    "TMC:cid_58:tabcd_1:LocationCode": "257",
    "admin_level": "4",
    "border_type": "state",
    "boundary": "administrative",
    "coat_of_arms": "File:Wappen der Hamburgischen Bürgerschaft.svg",
    "de:amtlicher_gemeindeschluessel": "02000000",
    "de:regionalschluessel": "020000000000",
    "flag": "File:Flag of Hamburg.svg",
    "logo": "File:Hamburg-logo.svg",
    "name": "Hamburg",
    "name:ar": "هامبورغ",
    "name:de": "Hamburg",
    "name:en": "Hamburg",
    "name:eo": "Hamburgo",
    "name:fa": "هامبورگ",
    "name:fr": "Hambourg",
    "name:hu": "Hamburg",
    "name:lv": "Hamburga",
    "name:nds": "Hamborg",
    "name:pl": "Hamburg",
    "name:prefix": "Freie und Hansestadt",
    "name:pt": "Hamburgo",
    "name:ru": "Гамбург",
    "name:sk": "Hamburg",
    "name:sr": "Хамбург",
    "name:th": "ฮัมบวร์ค",
    "name:uk": "Гамбурґ",
    "name:ur": "ہم برک",
    "name:zh": "汉堡",
    "name:zh-Hans": "汉堡",
    "name:zh-Hant": "漢堡",
    "nickname": "Freie und Hansestadt",
    "nickname:ar": "مدينة الحرة الهانزية",
    "nickname:de": "Freie und Hansestadt",
    "nickname:en": "Free and Hanseatic City",
    "nickname:nds": "Friee un Hansestadt",
    "nickname:pt": "Cidade Livre e Hanseática",
    "official_name": "Freie und Hansestadt Hamburg",
    "official_name:ar": "مدينة هامبورغ الحرة الهانزية",
    "official_name:de": "Freie und Hansestadt Hamburg",
    "official_name:en": "Free and Hanseatic City of Hamburg",
    "official_name:nds": "Friee un Hansestadt Hamborg",
    "official_name:pt": "Cidade Livre e Hanseática de Hamburgo",
    "official_status": "Land",
    "official_status:ar": "ولاية",
    "official_status:de": "Land",
    "official_status:en": "State",
    "official_status:ru": "земля",
    "ref": "HH",
    "ref:LOCODE": "DEHAM",
    "ref:nuts": "DE6;DE60;DE600",
    "ref:nuts:1": "DE6",
    "ref:nuts:2": "DE60",
    "ref:nuts:3": "DE600",
    "short_name": "HH",
    "source": "http://wiki.openstreetmap.org/wiki/Import/Catalogue/Kreisgrenzen_Deutschland_2005",
    "type": "boundary",
    "wikidata": "Q1055",
    "wikipedia": "de:Hamburg"
  }
},
{
  "type": "area",
  "id": 3600451087,
  "tags": {
    "ISO3166-2": "DE-HH",
    "admin_level": "4",
    "boundary": "land_area",
    "de:amtlicher_gemeindeschluessel": "02000000",
    "de:name_index_city": "Hamburg",
    "de:place": "city",
    "de:regionalschluessel": "020000000000",
    "description": "(Landmasse) Stadt Hamburg + Niggehörn",
    "land_area": "administrative",
    "name": "Hamburg",
    "name:ar": "هامبورغ",
    "name:de": "Hamburg",
    "name:en": "Free and Hanseatic City of Hamburg",
    "name:fa": "هامبورگ",
    "name:hu": "Hamburg",
    "name:prefix:de": "Freie und Hansestadt",
    "name:ru": "Гамбург",
    "name:sr": "Хамбург",
    "name:ur": "ہم برک",
    "type": "boundary",
    "wikidata": "Q1055"
  }
}

  ]
}
